[{"OBJECT_NAME":"STARLINK-33643","OBJECT_ID":"2025-063U","EPOCH":"2026-01-19T23:40:25.323744","MEAN_MOTION":15.30171011,"ECCENTRICITY":0.00011413,"INCLINATION":53.1583,"RA_OF_ASC_NODE":278.6224,"ARG_OF_PERICENTER":108.763,"MEAN_ANOMALY":251.3495,"EPHEMERIS_TYPE":0,"CLASSIFICATION_TYPE":"U","NORAD_CAT_ID":63381,"ELEMENT_SET_NO":999,"REV_AT_EPOCH":4730,"BSTAR":0.0010670399,"MEAN_MOTION_DOT":0.00031349,"MEAN_MOTION_DDOT":0},{"OBJECT_NAME":"STARLINK-33633","OBJECT_ID":"2025-063V","EPOCH":"2026-01-19T23:24:00.742176","MEAN_MOTION":15.37546216,"ECCENTRICITY":0.0001537,"INCLINATION":53.1609,"RA_OF_ASC_NODE":273.5996,"ARG_OF_PERICENTER":151.6003,"MEAN_ANOMALY":208.5085,"EPHEMERIS_TYPE":0,"CLASSIFICATION_TYPE":"U","NORAD_CAT_ID":63382,"ELEMENT_SET_NO":999,"REV_AT_EPOCH":4732,"BSTAR":0.0040008346,"MEAN_MOTION_DOT":0.00152195,"MEAN_MOTION_DDOT":0},{"OBJECT_NAME":"STARLINK-33748","OBJECT_ID":"2025-063W","EPOCH":"2026-01-19T22:17:03.501600","MEAN_MOTION":15.30219939,"ECCENTRICITY":0.00011363,"INCLINATION":53.1609,"RA_OF_ASC_NODE":289.6219,"ARG_OF_PERICENTER":93.8214,"MEAN_ANOMALY":266.2916,"EPHEMERIS_TYPE":0,"CLASSIFICATION_TYPE":"U","NORAD_CAT_ID":63383,"ELEMENT_SET_NO":999,"REV_AT_EPOCH":4714,"BSTAR":0.0014207599,"MEAN_MOTION_DOT":0.00041984,"MEAN_MOTION_DDOT":0},{"OBJECT_NAME":"STARLINK-33658","OBJECT_ID":"2025-063X","EPOCH":"2026-01-19T22:33:44.479296","MEAN_MOTION":15.30178155,"ECCENTRICITY":0.00011925,"INCLINATION":53.1579,"RA_OF_ASC_NODE":279.0405,"ARG_OF_PERICENTER":77.506,"MEAN_ANOMALY":282.6075,"EPHEMERIS_TYPE":0,"CLASSIFICATION_TYPE":"U","NORAD_CAT_ID":63384,"ELEMENT_SET_NO":999,"REV_AT_EPOCH":4729,"BSTAR":0.00069853448,"MEAN_MOTION_DOT":0.00020372,"MEAN_MOTION_DDOT":0},{"OBJECT_NAME":"STARLINK-33616","OBJECT_ID":"2025-063Y","EPOCH":"2026-01-19T23:48:04.379904","MEAN_MOTION":15.30205345,"ECCENTRICITY":7.07e-5,"INCLINATION":53.1605,"RA_OF_ASC_NODE":289.3112,"ARG_OF_PERICENTER":126.3697,"MEAN_ANOMALY":233.7369,"EPHEMERIS_TYPE":0,"CLASSIFICATION_TYPE":"U","NORAD_CAT_ID":63385,"ELEMENT_SET_NO":999,"REV_AT_EPOCH":4710,"BSTAR":0.00084040322,"MEAN_MOTION_DOT":0.00024618,"MEAN_MOTION_DDOT":0},{"OBJECT_NAME":"STARLINK-33571","OBJECT_ID":"2025-063Z","EPOCH":"2026-01-19T23:26:47.555520","MEAN_MOTION":15.30213168,"ECCENTRICITY":0.00010687,"INCLINATION":53.1587,"RA_OF_ASC_NODE":289.1951,"ARG_OF_PERICENTER":104.3703,"MEAN_ANOMALY":255.7416,"EPHEMERIS_TYPE":0,"CLASSIFICATION_TYPE":"U","NORAD_CAT_ID":63386,"ELEMENT_SET_NO":999,"REV_AT_EPOCH":4710,"BSTAR":0.0010950402,"MEAN_MOTION_DOT":0.00032227,"MEAN_MOTION_DDOT":0},{"OBJECT_NAME":"STARLINK-33533","OBJECT_ID":"2025-063AA","EPOCH":"2026-01-19T22:58:39.021312","MEAN_MOTION":15.30207144,"ECCENTRICITY":0.00010329,"INCLINATION":53.1587,"RA_OF_ASC_NODE":276.3145,"ARG_OF_PERICENTER":96.4997,"MEAN_ANOMALY":263.6121,"EPHEMERIS_TYPE":0,"CLASSIFICATION_TYPE":"U","NORAD_CAT_ID":63387,"ELEMENT_SET_NO":999,"REV_AT_EPOCH":4728,"BSTAR":0.00079120621,"MEAN_MOTION_DOT":0.00023152,"MEAN_MOTION_DDOT":0},{"OBJECT_NAME":"STARLINK-33629","OBJECT_ID":"2025-063AB","EPOCH":"2026-01-19T23:12:19.642464","MEAN_MOTION":15.30198485,"ECCENTRICITY":0.00014341,"INCLINATION":53.1579,"RA_OF_ASC_NODE":276.3703,"ARG_OF_PERICENTER":64.5638,"MEAN_ANOMALY":295.5511,"EPHEMERIS_TYPE":0,"CLASSIFICATION_TYPE":"U","NORAD_CAT_ID":63388,"ELEMENT_SET_NO":999,"REV_AT_EPOCH":4733,"BSTAR":0.00028766456,"MEAN_MOTION_DOT":8.17e-5,"MEAN_MOTION_DDOT":0},{"OBJECT_NAME":"STARLINK-33656","OBJECT_ID":"2025-063AC","EPOCH":"2026-01-19T22:20:03.876288","MEAN_MOTION":15.30205386,"ECCENTRICITY":0.00012645,"INCLINATION":53.1588,"RA_OF_ASC_NODE":278.9838,"ARG_OF_PERICENTER":95.0676,"MEAN_ANOMALY":265.0469,"EPHEMERIS_TYPE":0,"CLASSIFICATION_TYPE":"U","NORAD_CAT_ID":63389,"ELEMENT_SET_NO":999,"REV_AT_EPOCH":4729,"BSTAR":0.00060567216,"MEAN_MOTION_DOT":0.00017625,"MEAN_MOTION_DDOT":0},{"OBJECT_NAME":"STARLINK-33531","OBJECT_ID":"2025-065A","EPOCH":"2026-01-19T17:36:00.213120","MEAN_MOTION":15.2758537,"ECCENTRICITY":7.472e-5,"INCLINATION":42.9985,"RA_OF_ASC_NODE":23.4854,"ARG_OF_PERICENTER":69.5115,"MEAN_ANOMALY":290.5817,"EPHEMERIS_TYPE":0,"CLASSIFICATION_TYPE":"U","NORAD_CAT_ID":63399,"ELEMENT_SET_NO":999,"REV_AT_EPOCH":4535,"BSTAR":0.00084799348,"MEAN_MOTION_DOT":0.0002315,"MEAN_MOTION_DDOT":0},{"OBJECT_NAME":"STARLINK-33652","OBJECT_ID":"2025-065B","EPOCH":"2026-01-19T16:58:59.404800","MEAN_MOTION":15.27588686,"ECCENTRICITY":2.125e-5,"INCLINATION":43.0047,"RA_OF_ASC_NODE":23.2828,"ARG_OF_PERICENTER":269.8306,"MEAN_ANOMALY":90.2521,"EPHEMERIS_TYPE":0,"CLASSIFICATION_TYPE":"U","NORAD_CAT_ID":63400,"ELEMENT_SET_NO":999,"REV_AT_EPOCH":4535,"BSTAR":0.00071600967,"MEAN_MOTION_DOT":0.00019498,"MEAN_MOTION_DDOT":0},{"OBJECT_NAME":"STARLINK-33707","OBJECT_ID":"2025-065C","EPOCH":"2026-01-19T17:30:26.557056","MEAN_MOTION":15.27585777,"ECCENTRICITY":6.596e-5,"INCLINATION":43.0042,"RA_OF_ASC_NODE":23.4568,"ARG_OF_PERICENTER":312.9393,"MEAN_ANOMALY":47.1403,"EPHEMERIS_TYPE":0,"CLASSIFICATION_TYPE":"U","NORAD_CAT_ID":63401,"ELEMENT_SET_NO":999,"REV_AT_EPOCH":4535,"BSTAR":0.00048050631,"MEAN_MOTION_DOT":0.00012986,"MEAN_MOTION_DDOT":0},{"OBJECT_NAME":"STARLINK-33668","OBJECT_ID":"2025-065D","EPOCH":"2026-01-19T10:05:33.236448","MEAN_MOTION":15.27625502,"ECCENTRICITY":0.00026575,"INCLINATION":43.0051,"RA_OF_ASC_NODE":25.4364,"ARG_OF_PERICENTER":284.1369,"MEAN_ANOMALY":75.9187,"EPHEMERIS_TYPE":0,"CLASSIFICATION_TYPE":"U","NORAD_CAT_ID":63402,"ELEMENT_SET_NO":999,"REV_AT_EPOCH":4530,"BSTAR":0.0011528196,"MEAN_MOTION_DOT":0.00031643,"MEAN_MOTION_DDOT":0},{"OBJECT_NAME":"STARLINK-33676","OBJECT_ID":"2025-065E","EPOCH":"2026-01-19T17:28:35.215104","MEAN_MOTION":15.27582661,"ECCENTRICITY":0.00016106,"INCLINATION":43.005,"RA_OF_ASC_NODE":23.4433,"ARG_OF_PERICENTER":265.5427,"MEAN_ANOMALY":94.524,"EPHEMERIS_TYPE":0,"CLASSIFICATION_TYPE":"U","NORAD_CAT_ID":63403,"ELEMENT_SET_NO":999,"REV_AT_EPOCH":4535,"BSTAR":0.00099376963,"MEAN_MOTION_DOT":0.00027187,"MEAN_MOTION_DDOT":0},{"OBJECT_NAME":"STARLINK-33711","OBJECT_ID":"2025-065F","EPOCH":"2026-01-19T07:32:11.569056","MEAN_MOTION":15.27606121,"ECCENTRICITY":0.00010104,"INCLINATION":43.0016,"RA_OF_ASC_NODE":25.4936,"ARG_OF_PERICENTER":274.072,"MEAN_ANOMALY":86.0016,"EPHEMERIS_TYPE":0,"CLASSIFICATION_TYPE":"U","NORAD_CAT_ID":63404,"ELEMENT_SET_NO":999,"REV_AT_EPOCH":4529,"BSTAR":0.0013213448,"MEAN_MOTION_DOT":0.00036306,"MEAN_MOTION_DDOT":0},{"OBJECT_NAME":"STARLINK-33708","OBJECT_ID":"2025-065G","EPOCH":"2026-01-19T09:43:21.165312","MEAN_MOTION":15.2760481,"ECCENTRICITY":0.0001279,"INCLINATION":43.0037,"RA_OF_ASC_NODE":25.3148,"ARG_OF_PERICENTER":258.872,"MEAN_ANOMALY":101.1988,"EPHEMERIS_TYPE":0,"CLASSIFICATION_TYPE":"U","NORAD_CAT_ID":63405,"ELEMENT_SET_NO":999,"REV_AT_EPOCH":4530,"BSTAR":0.0010916229,"MEAN_MOTION_DOT":0.00029922,"MEAN_MOTION_DDOT":0},{"OBJECT_NAME":"STARLINK-33690","OBJECT_ID":"2025-065H","EPOCH":"2026-01-19T16:50:25.840608","MEAN_MOTION":15.27589585,"ECCENTRICITY":5.025e-5,"INCLINATION":43.0033,"RA_OF_ASC_NODE":19.7786,"ARG_OF_PERICENTER":264.8413,"MEAN_ANOMALY":95.2382,"EPHEMERIS_TYPE":0,"CLASSIFICATION_TYPE":"U","NORAD_CAT_ID":63406,"ELEMENT_SET_NO":999,"REV_AT_EPOCH":4539,"BSTAR":0.00067121464,"MEAN_MOTION_DOT":0.00018259,"MEAN_MOTION_DDOT":0},{"OBJECT_NAME":"STARLINK-33694","OBJECT_ID":"2025-065J","EPOCH":"2026-01-19T17:23:02.682240","MEAN_MOTION":15.27574742,"ECCENTRICITY":5.309e-5,"INCLINATION":43.0026,"RA_OF_ASC_NODE":23.4034,"ARG_OF_PERICENTER":27.562,"MEAN_ANOMALY":332.526,"EPHEMERIS_TYPE":0,"CLASSIFICATION_TYPE":"U","NORAD_CAT_ID":63407,"ELEMENT_SET_NO":999,"REV_AT_EPOCH":4535,"BSTAR":0.00074064366,"MEAN_MOTION_DOT":0.00020171,"MEAN_MOTION_DDOT":0},{"OBJECT_NAME":"STARLINK-33692","OBJECT_ID":"2025-065K","EPOCH":"2026-01-19T16:51:05.336640","MEAN_MOTION":15.27634137,"ECCENTRICITY":0.0002818,"INCLINATION":42.9998,"RA_OF_ASC_NODE":27.5572,"ARG_OF_PERICENTER":277.3446,"MEAN_ANOMALY":82.7086,"EPHEMERIS_TYPE":0,"CLASSIFICATION_TYPE":"U","NORAD_CAT_ID":63408,"ELEMENT_SET_NO":999,"REV_AT_EPOCH":4530,"BSTAR":0.00070777002,"MEAN_MOTION_DOT":0.00019298,"MEAN_MOTION_DDOT":0},{"OBJECT_NAME":"STARLINK-33693","OBJECT_ID":"2025-065L","EPOCH":"2026-01-20T00:05:34.178784","MEAN_MOTION":15.27605192,"ECCENTRICITY":8.943e-5,"INCLINATION":43.0022,"RA_OF_ASC_NODE":22.0618,"ARG_OF_PERICENTER":253.906,"MEAN_ANOMALY":106.1694,"EPHEMERIS_TYPE":0,"CLASSIFICATION_TYPE":"U","NORAD_CAT_ID":63409,"ELEMENT_SET_NO":999,"REV_AT_EPOCH":4539,"BSTAR":0.0016794696,"MEAN_MOTION_DOT":0.00046279,"MEAN_MOTION_DDOT":0},{"OBJECT_NAME":"STARLINK-33677","OBJECT_ID":"2025-065M","EPOCH":"2026-01-19T23:54:27.829152","MEAN_MOTION":15.27585037,"ECCENTRICITY":0.00013623,"INCLINATION":43.0034,"RA_OF_ASC_NODE":22.0036,"ARG_OF_PERICENTER":263.1239,"MEAN_ANOMALY":96.9458,"EPHEMERIS_TYPE":0,"CLASSIFICATION_TYPE":"U","NORAD_CAT_ID":63410,"ELEMENT_SET_NO":999,"REV_AT_EPOCH":4539,"BSTAR":0.0011438244,"MEAN_MOTION_DOT":0.00031352,"MEAN_MOTION_DDOT":0},{"OBJECT_NAME":"STARLINK-33647","OBJECT_ID":"2025-065N","EPOCH":"2026-01-19T17:12:35.775072","MEAN_MOTION":15.27599038,"ECCENTRICITY":8.206e-5,"INCLINATION":42.9999,"RA_OF_ASC_NODE":31.142,"ARG_OF_PERICENTER":263.3479,"MEAN_ANOMALY":96.728,"EPHEMERIS_TYPE":0,"CLASSIFICATION_TYPE":"U","NORAD_CAT_ID":63411,"ELEMENT_SET_NO":999,"REV_AT_EPOCH":4526,"BSTAR":0.00034740035,"MEAN_MOTION_DOT":9.315e-5,"MEAN_MOTION_DDOT":0},{"OBJECT_NAME":"STARLINK-33645","OBJECT_ID":"2025-065P","EPOCH":"2026-01-19T17:26:01.365216","MEAN_MOTION":15.27606096,"ECCENTRICITY":0.00013456,"INCLINATION":43.0079,"RA_OF_ASC_NODE":26.8104,"ARG_OF_PERICENTER":276.0382,"MEAN_ANOMALY":84.0316,"EPHEMERIS_TYPE":0,"CLASSIFICATION_TYPE":"U","NORAD_CAT_ID":63412,"ELEMENT_SET_NO":999,"REV_AT_EPOCH":4531,"BSTAR":0.0011969584,"MEAN_MOTION_DOT":0.00032848,"MEAN_MOTION_DDOT":0}]
